ALOS-2                  
1 39766U 14029A   26067.56908567  .00006106  00000+0  82314-3 0  9997
2 39766  97.9194 166.1826 0001547  96.0349 264.1039 14.79504317636708
YAOGAN-29               
1 41038U 15069A   26067.51250721  .00001328  00000+0  17012-3 0  9998
2 41038  98.0142  95.9389 0002031  39.8187 320.3174 14.82996900555707
ASTRO-H (HITOMI)        
1 41337U 16012A   26067.51035045  .00004808  00000+0  28283-3 0  9997
2 41337  31.0009   4.1577 0009916 319.2518  40.7378 15.09996630552055
HXMT (HUIYAN)           
1 42758U 17034A   26067.32953326  .00009885  00000+0  48953-3 0  9996
2 42758  43.0154  24.2346 0032765 227.7034 132.1036 15.17442317482335
SAOCOM 1A               
1 43641U 18076A   26067.47777904  .00000844  00000+0  11257-3 0  9990
2 43641  97.8890 255.6670 0001269  86.3782 273.7576 14.82168699401189
H-2A R/B                
1 43682U 18084L   26067.49937203  .00030195  00000+0  71755-3 0  9997
2 43682  98.8730 284.6329 0025561  29.3358 330.9312 15.41290653405593
SAOCOM 1B               
1 46265U 20059A   26065.95626301  .00001349  00000+0  17595-3 0  9996
2 46265  97.8885 253.2654 0001504  81.2285 278.9098 14.82173062298346
CSS (TIANHE)            
1 48274U 21035A   26067.43571014  .00028893  00000+0  34207-3 0  9990
2 48274  41.4663 215.7910 0006977 265.0647  94.9395 15.60585348277410
COSMOS 2550             
1 48865U 21056A   26067.47400841 -.00000192  00000+0 -13338-7 0  9992
2 48865  67.1451  44.6088 0008369 269.6014  90.4182 15.33829151263273
CZ-2C R/B               
1 52794U 22058K   26067.09787482  .00047047  00000+0  68669-3 0  9999
2 52794  50.1897 326.4776 0042177 194.0797 165.9000 15.54100851209880
CZ-2C R/B               
1 54039U 22132E   26067.53871743  .00052505  00000+0  60049-3 0  9998
2 54039  97.2969  70.8203 0020690  95.1831 265.1789 15.61734579190195
GSLV R/B                
1 54149U 22138AN  26067.31685051  .00004751  00000+0  41097-3 0  9999
2 54149  87.3879 166.8219 0022873 151.5173 208.7314 14.96764910183728
