CCSDS_OMM_VERS = 2.0
CREATION_DATE  = 
ORIGINATOR     = 

OBJECT_NAME    = ALOS-2
OBJECT_ID      = 2014-029A
CENTER_NAME    = EARTH
REF_FRAME      = TEME
TIME_SYSTEM    = UTC
MEAN_ELEMENT_THEORY = SGP/SGP4

EPOCH          = 2026-03-08T13:39:29.001888
MEAN_MOTION    = 14.79504317
ECCENTRICITY   = .0001547
INCLINATION    = 97.9194
RA_OF_ASC_NODE = 166.1826
ARG_OF_PERICENTER = 96.0349
MEAN_ANOMALY   = 264.1039

EPHEMERIS_TYPE = 0
CLASSIFICATION_TYPE = U
NORAD_CAT_ID   = 39766
ELEMENT_SET_NO = 999
REV_AT_EPOCH   = 63670
BSTAR          = .82314E-3
MEAN_MOTION_DOT = .6106E-4
MEAN_MOTION_DDOT = 0

CCSDS_OMM_VERS = 2.0
CREATION_DATE  = 
ORIGINATOR     = 

OBJECT_NAME    = YAOGAN-29
OBJECT_ID      = 2015-069A
CENTER_NAME    = EARTH
REF_FRAME      = TEME
TIME_SYSTEM    = UTC
MEAN_ELEMENT_THEORY = SGP/SGP4

EPOCH          = 2026-03-08T12:18:00.622944
MEAN_MOTION    = 14.82996900
ECCENTRICITY   = .0002031
INCLINATION    = 98.0142
RA_OF_ASC_NODE = 95.9389
ARG_OF_PERICENTER = 39.8187
MEAN_ANOMALY   = 320.3174

EPHEMERIS_TYPE = 0
CLASSIFICATION_TYPE = U
NORAD_CAT_ID   = 41038
ELEMENT_SET_NO = 999
REV_AT_EPOCH   = 55570
BSTAR          = .17012E-3
MEAN_MOTION_DOT = .1328E-4
MEAN_MOTION_DDOT = 0

CCSDS_OMM_VERS = 2.0
CREATION_DATE  = 
ORIGINATOR     = 

OBJECT_NAME    = ASTRO-H (HITOMI)
OBJECT_ID      = 2016-012A
CENTER_NAME    = EARTH
REF_FRAME      = TEME
TIME_SYSTEM    = UTC
MEAN_ELEMENT_THEORY = SGP/SGP4

EPOCH          = 2026-03-08T12:14:54.278880
MEAN_MOTION    = 15.09996630
ECCENTRICITY   = .0009916
INCLINATION    = 31.0009
RA_OF_ASC_NODE = 4.1577
ARG_OF_PERICENTER = 319.2518
MEAN_ANOMALY   = 40.7378

EPHEMERIS_TYPE = 0
CLASSIFICATION_TYPE = U
NORAD_CAT_ID   = 41337
ELEMENT_SET_NO = 999
REV_AT_EPOCH   = 55205
BSTAR          = .28283E-3
MEAN_MOTION_DOT = .4808E-4
MEAN_MOTION_DDOT = 0

CCSDS_OMM_VERS = 2.0
CREATION_DATE  = 
ORIGINATOR     = 

OBJECT_NAME    = HXMT (HUIYAN)
OBJECT_ID      = 2017-034A
CENTER_NAME    = EARTH
REF_FRAME      = TEME
TIME_SYSTEM    = UTC
MEAN_ELEMENT_THEORY = SGP/SGP4

EPOCH          = 2026-03-08T07:54:31.673664
MEAN_MOTION    = 15.17442317
ECCENTRICITY   = .0032765
INCLINATION    = 43.0154
RA_OF_ASC_NODE = 24.2346
ARG_OF_PERICENTER = 227.7034
MEAN_ANOMALY   = 132.1036

EPHEMERIS_TYPE = 0
CLASSIFICATION_TYPE = U
NORAD_CAT_ID   = 42758
ELEMENT_SET_NO = 999
REV_AT_EPOCH   = 48233
BSTAR          = .48953E-3
MEAN_MOTION_DOT = .9885E-4
MEAN_MOTION_DDOT = 0

CCSDS_OMM_VERS = 2.0
CREATION_DATE  = 
ORIGINATOR     = 

OBJECT_NAME    = SAOCOM 1A
OBJECT_ID      = 2018-076A
CENTER_NAME    = EARTH
REF_FRAME      = TEME
TIME_SYSTEM    = UTC
MEAN_ELEMENT_THEORY = SGP/SGP4

EPOCH          = 2026-03-08T11:28:00.109056
MEAN_MOTION    = 14.82168699
ECCENTRICITY   = .0001269
INCLINATION    = 97.8890
RA_OF_ASC_NODE = 255.6670
ARG_OF_PERICENTER = 86.3782
MEAN_ANOMALY   = 273.7576

EPHEMERIS_TYPE = 0
CLASSIFICATION_TYPE = U
NORAD_CAT_ID   = 43641
ELEMENT_SET_NO = 999
REV_AT_EPOCH   = 40118
BSTAR          = .11257E-3
MEAN_MOTION_DOT = .844E-5
MEAN_MOTION_DDOT = 0

CCSDS_OMM_VERS = 2.0
CREATION_DATE  = 
ORIGINATOR     = 

OBJECT_NAME    = H-2A R/B
OBJECT_ID      = 2018-084L
CENTER_NAME    = EARTH
REF_FRAME      = TEME
TIME_SYSTEM    = UTC
MEAN_ELEMENT_THEORY = SGP/SGP4

EPOCH          = 2026-03-08T11:59:05.743392
MEAN_MOTION    = 15.41290653
ECCENTRICITY   = .0025561
INCLINATION    = 98.8730
RA_OF_ASC_NODE = 284.6329
ARG_OF_PERICENTER = 29.3358
MEAN_ANOMALY   = 330.9312

EPHEMERIS_TYPE = 0
CLASSIFICATION_TYPE = U
NORAD_CAT_ID   = 43682
ELEMENT_SET_NO = 999
REV_AT_EPOCH   = 40559
BSTAR          = .71755E-3
MEAN_MOTION_DOT = .30195E-3
MEAN_MOTION_DDOT = 0

CCSDS_OMM_VERS = 2.0
CREATION_DATE  = 
ORIGINATOR     = 

OBJECT_NAME    = SAOCOM 1B
OBJECT_ID      = 2020-059A
CENTER_NAME    = EARTH
REF_FRAME      = TEME
TIME_SYSTEM    = UTC
MEAN_ELEMENT_THEORY = SGP/SGP4

EPOCH          = 2026-03-06T22:57:01.124064
MEAN_MOTION    = 14.82173062
ECCENTRICITY   = .00015046
INCLINATION    = 97.8885
RA_OF_ASC_NODE = 253.2654
ARG_OF_PERICENTER = 81.2285
MEAN_ANOMALY   = 278.9098

EPHEMERIS_TYPE = 0
CLASSIFICATION_TYPE = U
NORAD_CAT_ID   = 46265
ELEMENT_SET_NO = 999
REV_AT_EPOCH   = 29834
BSTAR          = .17595012E-3
MEAN_MOTION_DOT = .1349E-4
MEAN_MOTION_DDOT = 0

CCSDS_OMM_VERS = 2.0
CREATION_DATE  = 
ORIGINATOR     = 

OBJECT_NAME    = CSS (TIANHE)
OBJECT_ID      = 2021-035A
CENTER_NAME    = EARTH
REF_FRAME      = TEME
TIME_SYSTEM    = UTC
MEAN_ELEMENT_THEORY = SGP/SGP4

EPOCH          = 2026-03-08T10:27:25.356096
MEAN_MOTION    = 15.60585348
ECCENTRICITY   = .0006977
INCLINATION    = 41.4663
RA_OF_ASC_NODE = 215.7910
ARG_OF_PERICENTER = 265.0647
MEAN_ANOMALY   = 94.9395

EPHEMERIS_TYPE = 0
CLASSIFICATION_TYPE = U
NORAD_CAT_ID   = 48274
ELEMENT_SET_NO = 999
REV_AT_EPOCH   = 27741
BSTAR          = .34207E-3
MEAN_MOTION_DOT = .28893E-3
MEAN_MOTION_DDOT = 0

CCSDS_OMM_VERS = 2.0
CREATION_DATE  = 
ORIGINATOR     = 

OBJECT_NAME    = COSMOS 2550
OBJECT_ID      = 2021-056A
CENTER_NAME    = EARTH
REF_FRAME      = TEME
TIME_SYSTEM    = UTC
MEAN_ELEMENT_THEORY = SGP/SGP4

EPOCH          = 2026-03-08T11:22:34.326624
MEAN_MOTION    = 15.33829151
ECCENTRICITY   = .0008369
INCLINATION    = 67.1451
RA_OF_ASC_NODE = 44.6088
ARG_OF_PERICENTER = 269.6014
MEAN_ANOMALY   = 90.4182

EPHEMERIS_TYPE = 0
CLASSIFICATION_TYPE = U
NORAD_CAT_ID   = 48865
ELEMENT_SET_NO = 999
REV_AT_EPOCH   = 26327
BSTAR          = -.13338E-7
MEAN_MOTION_DOT = -.192E-5
MEAN_MOTION_DDOT = 0

CCSDS_OMM_VERS = 2.0
CREATION_DATE  = 
ORIGINATOR     = 

OBJECT_NAME    = CZ-2C R/B
OBJECT_ID      = 2022-058K
CENTER_NAME    = EARTH
REF_FRAME      = TEME
TIME_SYSTEM    = UTC
MEAN_ELEMENT_THEORY = SGP/SGP4

EPOCH          = 2026-03-08T02:20:56.384448
MEAN_MOTION    = 15.54100851
ECCENTRICITY   = .0042177
INCLINATION    = 50.1897
RA_OF_ASC_NODE = 326.4776
ARG_OF_PERICENTER = 194.0797
MEAN_ANOMALY   = 165.9000

EPHEMERIS_TYPE = 0
CLASSIFICATION_TYPE = U
NORAD_CAT_ID   = 52794
ELEMENT_SET_NO = 999
REV_AT_EPOCH   = 20988
BSTAR          = .68669E-3
MEAN_MOTION_DOT = .47047E-3
MEAN_MOTION_DDOT = 0

CCSDS_OMM_VERS = 2.0
CREATION_DATE  = 
ORIGINATOR     = 

OBJECT_NAME    = CZ-2C R/B
OBJECT_ID      = 2022-132E
CENTER_NAME    = EARTH
REF_FRAME      = TEME
TIME_SYSTEM    = UTC
MEAN_ELEMENT_THEORY = SGP/SGP4

EPOCH          = 2026-03-08T12:55:45.185952
MEAN_MOTION    = 15.61734579
ECCENTRICITY   = .002069
INCLINATION    = 97.2969
RA_OF_ASC_NODE = 70.8203
ARG_OF_PERICENTER = 95.1831
MEAN_ANOMALY   = 265.1789

EPHEMERIS_TYPE = 0
CLASSIFICATION_TYPE = U
NORAD_CAT_ID   = 54039
ELEMENT_SET_NO = 999
REV_AT_EPOCH   = 19019
BSTAR          = .60049E-3
MEAN_MOTION_DOT = .52505E-3
MEAN_MOTION_DDOT = 0

CCSDS_OMM_VERS = 2.0
CREATION_DATE  = 
ORIGINATOR     = 

OBJECT_NAME    = GSLV R/B
OBJECT_ID      = 2022-138AN
CENTER_NAME    = EARTH
REF_FRAME      = TEME
TIME_SYSTEM    = UTC
MEAN_ELEMENT_THEORY = SGP/SGP4

EPOCH          = 2026-03-08T07:36:15.884064
MEAN_MOTION    = 14.96764910
ECCENTRICITY   = .0022873
INCLINATION    = 87.3879
RA_OF_ASC_NODE = 166.8219
ARG_OF_PERICENTER = 151.5173
MEAN_ANOMALY   = 208.7314

EPHEMERIS_TYPE = 0
CLASSIFICATION_TYPE = U
NORAD_CAT_ID   = 54149
ELEMENT_SET_NO = 999
REV_AT_EPOCH   = 18372
BSTAR          = .41097E-3
MEAN_MOTION_DOT = .4751E-4
MEAN_MOTION_DDOT = 0

